IRIDIUM 166             
1 43570U 18061B   23346.76924555  .00000291  00000+0  96857-4 0  9996
2 43570  86.3970  80.1561 0002341  92.2938 267.8526 14.34218961281903
IRIDIUM 158             
1 43571U 18061C   23346.80729708  .00000279  00000+0  92535-4 0  9990
2 43571  86.3969  80.1492 0002070  83.6206 276.5225 14.34217224281876
IRIDIUM 165             
1 43572U 18061D   23346.76289826  .00000280  00000+0  92996-4 0  9991
2 43572  86.3971  80.1965 0002101  86.9837 273.1599 14.34218975281899
IRIDIUM 155             
1 43573U 18061E   23347.35276472  .00000282  00000+0  93459-4 0  9998
2 43573  86.3967  79.8645 0002301  98.4344 261.7113 14.34216735281952
IRIDIUM 154             
1 43574U 18061F   23346.77559689  .00000292  00000+0  97323-4 0  9993
2 43574  86.3972  80.1946 0001849 100.5251 259.6153 14.34215937281915
IRIDIUM 163             
1 43575U 18061G   23346.75655464  .00000287  00000+0  95246-4 0  9996
2 43575  86.3970  80.1463 0002007  98.6524 261.4899 14.34218266281887
IRIDIUM 156             
1 43576U 18061H   23346.80095448  .00000490  00000+0  16790-3 0  9995
2 43576  86.3970  80.1341 0002231  90.4998 269.6454 14.34217926281886
IRIDIUM 164             
1 43577U 18061J   23346.99122813  .00000322  00000+0  10785-3 0  9995
2 43577  86.3969  80.0801 0002032  88.6702 271.4727 14.34216210281953
